start=new Date('2022-08-31T00:00:00.000Z').valueOf();
sats=[{"MEAN_ELEMENT_THEORY":"SGP4","RA_OF_ASC_NODE":"305.1785","CENTER_NAME":"EARTH","GP_ID":"211326153","MEAN_MOTION_DDOT":"0.0000000000000","EPHEMERIS_TYPE":"0","BSTAR":"0.00007055400000","NORAD_CAT_ID":"45050","INCLINATION":"53.0537","FILE":"3551880","DECAY_DATE":null,"ELEMENT_SET_NO":"999","TLE_LINE1":"1 45050U 20006G   22242.46620300  .00000770  00000-0  70554-4 0  9994","REF_FRAME":"TEME","SEMIMAJOR_AXIS":"6925.339","EPOCH":"2022-08-30T11:11:19.939200","APOAPSIS":"548.144","REV_AT_EPOCH":"14244","TIME_SYSTEM":"UTC","ECCENTRICITY":"0.00013570","MEAN_MOTION":"15.06403057","SITE":"AFETR","TLE_LINE2":"2 45050  53.0537 305.1785 0001357  86.3641 273.7503 15.06403057142445","CLASSIFICATION_TYPE":"U","OBJECT_ID":"2020-006G","OBJECT_NAME":"STARLINK-1140","PERIOD":"95.592","ARG_OF_PERICENTER":"86.3641","MEAN_MOTION_DOT":"0.00000770","LAUNCH_DATE":"2020-01-29","PERIAPSIS":"546.264","RCS_SIZE":"LARGE","MEAN_ANOMALY":"273.7503","OBJECT_TYPE":"PAYLOAD","COUNTRY_CODE":"US"},{"TIME_SYSTEM":"UTC","REV_AT_EPOCH":"14255","MEAN_MOTION":"15.14762896","ECCENTRICITY":"0.00015800","CLASSIFICATION_TYPE":"U","OBJECT_ID":"2020-006H","OBJECT_NAME":"STARLINK-1141","ARG_OF_PERICENTER":"66.4987","PERIOD":"95.064","SITE":"AFETR","TLE_LINE2":"2 45051  53.0504 297.3588 0001580  66.4987 293.6172 15.14762896142556","OBJECT_TYPE":"PAYLOAD","COUNTRY_CODE":"US","PERIAPSIS":"520.610","LAUNCH_DATE":"2020-01-29","MEAN_MOTION_DOT":"0.00010648","RCS_SIZE":"LARGE","MEAN_ANOMALY":"293.6172","CENTER_NAME":"EARTH","MEAN_MOTION_DDOT":"0.0000000000000","GP_ID":"211326900","EPHEMERIS_TYPE":"0","MEAN_ELEMENT_THEORY":"SGP4","RA_OF_ASC_NODE":"297.3588","DECAY_DATE":null,"FILE":"3551880","ELEMENT_SET_NO":"999","NORAD_CAT_ID":"45051","BSTAR":"0.00058279000000","INCLINATION":"53.0504","REF_FRAME":"TEME","TLE_LINE1":"1 45051U 20006H   22242.44288513  .00010648  00000-0  58279-3 0  9993","APOAPSIS":"522.791","SEMIMAJOR_AXIS":"6899.835","EPOCH":"2022-08-30T10:37:45.275232"},{"EPHEMERIS_TYPE":"0","MEAN_MOTION_DDOT":"0.0000000000000","GP_ID":"211356858","CENTER_NAME":"EARTH","MEAN_ELEMENT_THEORY":"SGP4","RA_OF_ASC_NODE":"304.5535","ELEMENT_SET_NO":"999","DECAY_DATE":null,"FILE":"3552179","INCLINATION":"53.0552","NORAD_CAT_ID":"45052","BSTAR":"-0.00009030200000","REF_FRAME":"TEME","TLE_LINE1":"1 45052U 20006J   22242.60627962 -.00001626  00000-0 -90302-4 0  9999","APOAPSIS":"548.151","EPOCH":"2022-08-30T14:33:02.559168","SEMIMAJOR_AXIS":"6925.370","TIME_SYSTEM":"UTC","REV_AT_EPOCH":"14246","MEAN_MOTION":"15.06393040","ECCENTRICITY":"0.00013230","ARG_OF_PERICENTER":"84.6745","PERIOD":"95.593","OBJECT_ID":"2020-006J","OBJECT_NAME":"STARLINK-1148","CLASSIFICATION_TYPE":"U","TLE_LINE2":"2 45052  53.0552 304.5535 0001323  84.6745 275.4394 15.06393040142468","SITE":"AFETR","COUNTRY_CODE":"US","OBJECT_TYPE":"PAYLOAD","MEAN_ANOMALY":"275.4394","RCS_SIZE":"LARGE","LAUNCH_DATE":"2020-01-29","MEAN_MOTION_DOT":"-0.00001626","PERIAPSIS":"546.319"},{"LAUNCH_DATE":"2020-01-29","PERIAPSIS":"519.436","MEAN_MOTION_DOT":"0.00009503","RCS_SIZE":"LARGE","MEAN_ANOMALY":"283.1434","OBJECT_TYPE":"PAYLOAD","COUNTRY_CODE":"US","SITE":"AFETR","TLE_LINE2":"2 45053  53.0011 292.8909 0001521  76.9728 283.1434 15.15163037142572","CLASSIFICATION_TYPE":"U","OBJECT_NAME":"STARLINK-1155","OBJECT_ID":"2020-006K","PERIOD":"95.039","ARG_OF_PERICENTER":"76.9728","ECCENTRICITY":"0.00015210","MEAN_MOTION":"15.15163037","REV_AT_EPOCH":"14257","TIME_SYSTEM":"UTC","SEMIMAJOR_AXIS":"6898.621","EPOCH":"2022-08-30T10:03:43.563744","APOAPSIS":"521.535","TLE_LINE1":"1 45053U 20006K   22242.41925421  .00009503  00000-0  51611-3 0  9999","REF_FRAME":"TEME","BSTAR":"0.00051611000000","NORAD_CAT_ID":"45053","INCLINATION":"53.0011","DECAY_DATE":null,"FILE":"3551880","ELEMENT_SET_NO":"999","MEAN_ELEMENT_THEORY":"SGP4","RA_OF_ASC_NODE":"292.8909","CENTER_NAME":"EARTH","GP_ID":"211325404","MEAN_MOTION_DDOT":"0.0000000000000","EPHEMERIS_TYPE":"0"},{"APOAPSIS":"548.097","SEMIMAJOR_AXIS":"6925.360","EPOCH":"2022-08-30T16:03:16.102368","REF_FRAME":"TEME","TLE_LINE1":"1 45054U 20006L   22242.66893637 -.00000931  00000-0 -43593-4 0  9999","FILE":"3552179","DECAY_DATE":null,"ELEMENT_SET_NO":"999","BSTAR":"-0.00004359300000","NORAD_CAT_ID":"45054","INCLINATION":"53.0545","CENTER_NAME":"EARTH","MEAN_MOTION_DDOT":"0.0000000000000","GP_ID":"211357858","EPHEMERIS_TYPE":"0","RA_OF_ASC_NODE":"304.2856","MEAN_ELEMENT_THEORY":"SGP4","OBJECT_TYPE":"PAYLOAD","COUNTRY_CODE":"US","MEAN_MOTION_DOT":"-0.00000931","LAUNCH_DATE":"2020-01-29","PERIAPSIS":"546.353","RCS_SIZE":"LARGE","MEAN_ANOMALY":"269.1182","CLASSIFICATION_TYPE":"U","OBJECT_ID":"2020-006L","OBJECT_NAME":"STARLINK-1156","PERIOD":"95.592","ARG_OF_PERICENTER":"90.9951","SITE":"AFETR","TLE_LINE2":"2 45054  53.0545 304.2856 0001259  90.9951 269.1182 15.06396170142475","MEAN_MOTION":"15.06396170","ECCENTRICITY":"0.00012590","TIME_SYSTEM":"UTC","REV_AT_EPOCH":"14247"},{"APOAPSIS":"548.031","EPOCH":"2022-08-30T11:37:53.386752","SEMIMAJOR_AXIS":"6925.384","REF_FRAME":"TEME","TLE_LINE1":"1 45057U 20006P   22242.48464568  .00000205  00000-0  32639-4 0  9990","FILE":"3551880","DECAY_DATE":null,"ELEMENT_SET_NO":"999","INCLINATION":"53.0555","BSTAR":"0.00003263900000","NORAD_CAT_ID":"45057","MEAN_MOTION_DDOT":"0.0000000000000","GP_ID":"211326400","EPHEMERIS_TYPE":"0","CENTER_NAME":"EARTH","MEAN_ELEMENT_THEORY":"SGP4","RA_OF_ASC_NODE":"305.1160","COUNTRY_CODE":"US","OBJECT_TYPE":"PAYLOAD","MEAN_ANOMALY":"271.0875","PERIAPSIS":"546.467","LAUNCH_DATE":"2020-01-29","MEAN_MOTION_DOT":"0.00000205","RCS_SIZE":"LARGE","OBJECT_ID":"2020-006P","OBJECT_NAME":"STARLINK-1159","PERIOD":"95.593","ARG_OF_PERICENTER":"89.0244","CLASSIFICATION_TYPE":"U","TLE_LINE2":"2 45057  53.0555 305.1160 0001129  89.0244 271.0875 15.06388445142452","SITE":"AFETR","MEAN_MOTION":"15.06388445","ECCENTRICITY":"0.00011290","TIME_SYSTEM":"UTC","REV_AT_EPOCH":"14245"},{"TLE_LINE1":"1 45058U 20006Q   22242.47726699  .00000188  00000-0  31499-4 0  9999","REF_FRAME":"TEME","SEMIMAJOR_AXIS":"6925.362","EPOCH":"2022-08-30T11:27:15.867936","APOAPSIS":"548.140","MEAN_ELEMENT_THEORY":"SGP4","RA_OF_ASC_NODE":"305.1457","CENTER_NAME":"EARTH","EPHEMERIS_TYPE":"0","MEAN_MOTION_DDOT":"0.0000000000000","GP_ID":"211326647","BSTAR":"0.00003149900000","NORAD_CAT_ID":"45058","INCLINATION":"53.0563","ELEMENT_SET_NO":"999","DECAY_DATE":null,"FILE":"3551880","SITE":"AFETR","TLE_LINE2":"2 45058  53.0563 305.1457 0001318  87.4612 272.6528 15.06395518142453","CLASSIFICATION_TYPE":"U","ARG_OF_PERICENTER":"87.4612","PERIOD":"95.592","OBJECT_NAME":"STARLINK-1162","OBJECT_ID":"2020-006Q","RCS_SIZE":"LARGE","LAUNCH_DATE":"2020-01-29","MEAN_MOTION_DOT":"0.00000188","PERIAPSIS":"546.315","MEAN_ANOMALY":"272.6528","OBJECT_TYPE":"PAYLOAD","COUNTRY_CODE":"US","REV_AT_EPOCH":"14245","TIME_SYSTEM":"UTC","ECCENTRICITY":"0.00013180","MEAN_MOTION":"15.06395518"},{"REV_AT_EPOCH":"14246","TIME_SYSTEM":"UTC","ECCENTRICITY":"0.00013600","MEAN_MOTION":"15.06390436","TLE_LINE2":"2 45059  53.0543 304.7575 0001360  95.0948 265.0196 15.06390436142464","SITE":"AFETR","OBJECT_ID":"2020-006R","OBJECT_NAME":"STARLINK-1165","ARG_OF_PERICENTER":"95.0948","PERIOD":"95.593","CLASSIFICATION_TYPE":"U","MEAN_ANOMALY":"265.0196","LAUNCH_DATE":"2020-01-29","MEAN_MOTION_DOT":"0.00000532","PERIAPSIS":"546.301","RCS_SIZE":"LARGE","COUNTRY_CODE":"US","OBJECT_TYPE":"PAYLOAD","MEAN_ELEMENT_THEORY":"SGP4","RA_OF_ASC_NODE":"304.7575","MEAN_MOTION_DDOT":"0.0000000000000","GP_ID":"211357108","EPHEMERIS_TYPE":"0","CENTER_NAME":"EARTH","INCLINATION":"53.0543","NORAD_CAT_ID":"45059","BSTAR":"0.00005462800000","DECAY_DATE":null,"FILE":"3552179","ELEMENT_SET_NO":"999","TLE_LINE1":"1 45059U 20006R   22242.56573537  .00000532  00000-0  54628-4 0  9993","REF_FRAME":"TEME","EPOCH":"2022-08-30T13:34:39.535968","SEMIMAJOR_AXIS":"6925.378","APOAPSIS":"548.185"},{"ELEMENT_SET_NO":"999","DECAY_DATE":null,"FILE":"3552179","BSTAR":"-0.00009221700000","NORAD_CAT_ID":"45060","INCLINATION":"53.0554","CENTER_NAME":"EARTH","EPHEMERIS_TYPE":"0","MEAN_MOTION_DDOT":"0.0000000000000","GP_ID":"211358359","RA_OF_ASC_NODE":"304.7632","MEAN_ELEMENT_THEORY":"SGP4","APOAPSIS":"548.088","SEMIMAJOR_AXIS":"6925.369","EPOCH":"2022-08-30T13:29:21.056928","REF_FRAME":"TEME","TLE_LINE1":"1 45060U 20006S   22242.56204927 -.00001654  00000-0 -92217-4 0  9993","MEAN_MOTION":"15.06393186","ECCENTRICITY":"0.00012330","TIME_SYSTEM":"UTC","REV_AT_EPOCH":"14246","OBJECT_TYPE":"PAYLOAD","COUNTRY_CODE":"US","RCS_SIZE":"LARGE","LAUNCH_DATE":"2020-01-29","PERIAPSIS":"546.381","MEAN_MOTION_DOT":"-0.00001654","MEAN_ANOMALY":"280.7204","CLASSIFICATION_TYPE":"U","ARG_OF_PERICENTER":"79.3924","PERIOD":"95.593","OBJECT_ID":"2020-006S","OBJECT_NAME":"STARLINK-1166","SITE":"AFETR","TLE_LINE2":"2 45060  53.0554 304.7632 0001233  79.3924 280.7204 15.06393186142469"},{"GP_ID":"211326901","MEAN_MOTION_DDOT":"0.0000000000000","EPHEMERIS_TYPE":"0","CENTER_NAME":"EARTH","MEAN_ELEMENT_THEORY":"SGP4","RA_OF_ASC_NODE":"305.3182","DECAY_DATE":null,"FILE":"3551880","ELEMENT_SET_NO":"999","INCLINATION":"53.0543","BSTAR":"0.00004482300000","NORAD_CAT_ID":"45061","REF_FRAME":"TEME","TLE_LINE1":"1 45061U 20006T   22242.43672198  .00000386  00000-0  44823-4 0  9998","APOAPSIS":"548.081","EPOCH":"2022-08-30T10:28:52.779072","SEMIMAJOR_AXIS":"6925.344","TIME_SYSTEM":"UTC","REV_AT_EPOCH":"14244","MEAN_MOTION":"15.06401528","ECCENTRICITY":"0.00012600","OBJECT_NAME":"STARLINK-1169","OBJECT_ID":"2020-006T","PERIOD":"95.592","ARG_OF_PERICENTER":"84.1327","CLASSIFICATION_TYPE":"U","TLE_LINE2":"2 45061  53.0543 305.3182 0001260  84.1327 275.9806 15.06401528142448","SITE":"AFETR","COUNTRY_CODE":"US","OBJECT_TYPE":"PAYLOAD","MEAN_ANOMALY":"275.9806","PERIAPSIS":"546.336","LAUNCH_DATE":"2020-01-29","MEAN_MOTION_DOT":"0.00000386","RCS_SIZE":"LARGE"}];
